STARLINK-30706
1 57947U 23148N   25329.79692266 -.00000940  00000+0 -19615-4 0  9998
2 57947  53.1597 147.0069 0001120  89.6376 270.4753 15.30187597122519